{
  "norad_id": 44299,
  "name": "COSMOS 2534 [GLONASS-M]",
  "history": [
    {
      "epoch": "2026-03-26T22:51:06.084864Z",
      "apogee_km": 19156.87799453883,
      "perigee_km": 19102.867334874783,
      "latitude_deg": 44.653430562503864,
      "longitude_deg": 56.42890951785754,
      "height_km": 19153.570515973635,
      "semi_major_axis_km": 25508.009664706806,
      "eccentricity": 0.0010587,
      "inclination_deg": 64.3675,
      "raan_deg": 195.3834,
      "arg_perigee_deg": 278.5139,
      "mean_anomaly_deg": 132.529,
      "mean_motion_rev_day": 2.13102185
    }
  ]
}