{"fetched_at":"2026-03-29T02:12:04Z","count":15717,"tles":[{"name":"COSMOS 2534 (758)","line1":"1 44299U 19030A   26085.95215376 -.00000022  00000+0  00000+0 0  9993","line2":"2 44299  64.3675 195.3834 0010587 278.5139 132.5290  2.13102185 53171","category":"Other"}]}